[{"OBJECT_NAME":"TRANSPORTER-14 OBJECT AC","OBJECT_ID":"2025-135AC","EPOCH":"2026-03-09T19:42:26.378496","MEAN_MOTION":15.26845403,"ECCENTRICITY":0.00010083,"INCLINATION":97.4518,"RA_OF_ASC_NODE":185.7428,"ARG_OF_PERICENTER":268.0523,"MEAN_ANOMALY":92.06,"EPHEMERIS_TYPE":0,"CLASSIFICATION_TYPE":"U","NORAD_CAT_ID":64554,"ELEMENT_SET_NO":999,"REV_AT_EPOCH":3982,"BSTAR":0.0009323368,"MEAN_MOTION_DOT":0.00024574,"MEAN_MOTION_DDOT":0},{"OBJECT_NAME":"STARLINK-35680","OBJECT_ID":"2025-270Y","EPOCH":"2026-03-09T22:29:35.759616","MEAN_MOTION":15.27608853,"ECCENTRICITY":0.00035908,"INCLINATION":43.0043,"RA_OF_ASC_NODE":54.7886,"ARG_OF_PERICENTER":302.0404,"MEAN_ANOMALY":58.0099,"EPHEMERIS_TYPE":0,"CLASSIFICATION_TYPE":"U","NORAD_CAT_ID":66610,"ELEMENT_SET_NO":999,"REV_AT_EPOCH":1785,"BSTAR":0.0011909637,"MEAN_MOTION_DOT":0.00032689,"MEAN_MOTION_DDOT":0}]
